[{"airport":"LEGA","visibility":0,"wind":0,"precipitation":0.0,"freezing":0,"dangerous":0.0,"VMC_IMC":0,"date":0,"airport_name":"GRANADA/ARMILLA (MILITAR)","latitude":37.133333333333333,"longitude":-3.6358333333333333,"countryCode":0,"raw_metar":"LEGA 241300Z 36009KT 310V050 9999 FEW060 27/03 Q1013 19-05-24","datetime":"2019-05-24T13:00:00+00:00"},{"airport":"LEAO","visibility":0,"wind":0,"precipitation":0.0,"freezing":0,"dangerous":0.0,"VMC_IMC":0,"date":0,"airport_name":"CIUDAD REAL/ALMAGRO (HEL MILITAR)","latitude":38.9533333,"longitude":-3.7413889,"countryCode":0,"raw_metar":"LEAO 241800Z 07011KT 020V110 9999 SCT040 23/06 Q1013 19-05-24","datetime":"2019-05-24T18:00:00+00:00"},{"airport":"LEAB","visibility":0,"wind":0,"precipitation":0.0,"freezing":0,"dangerous":0.0,"VMC_IMC":0,"date":0,"airport_name":"ALBACETE","latitude":38.948611111111106,"longitude":-1.8633333333333335,"countryCode":0,"raw_metar":"LEAB 260800Z 01007KT CAVOK 15/07 Q1019 NOSIG 19-05-26","datetime":"2019-05-26T08:00:00+00:00"},{"airport":"LEAL","visibility":0,"wind":0,"precipitation":0.0,"freezing":0,"dangerous":0.0,"VMC_IMC":0,"date":0,"airport_name":"ALICANTE-ELCHE","latitude":38.282222222222224,"longitude":-0.55805555555555564,"countryCode":0,"raw_metar":"LEAL 260800Z 23004KT 200V260 CAVOK 22/12 Q1017 NOSIG 19-05-26","datetime":"2019-05-26T08:00:00+00:00"},{"airport":"LEAM","visibility":0,"wind":0,"precipitation":0.0,"freezing":0,"dangerous":0.0,"VMC_IMC":0,"date":0,"airport_name":"ALMERIA","latitude":36.843888888888891,"longitude":-2.37,"countryCode":0,"raw_metar":"LEAM 260800Z 16004KT 140V200 9999 FEW050 19/15 Q1017 19-05-26","datetime":"2019-05-26T08:00:00+00:00"},{"airport":"LEAS","visibility":0,"wind":0,"precipitation":0.0,"freezing":0,"dangerous":0.0,"VMC_IMC":0,"date":0,"airport_name":"ASTURIAS","latitude":43.563611111111108,"longitude":-6.0347222222222223,"countryCode":0,"raw_metar":"LEAS 260800Z 24006KT 210V270 9999 BKN027 14/10 Q1024 TEMPO BKN014 19-05-26","datetime":"2019-05-26T08:00:00+00:00"},{"airport":"LEBA","visibility":0,"wind":0,"precipitation":0.0,"freezing":0,"dangerous":0.0,"VMC_IMC":0,"date":0,"airport_name":"CORDOBA","latitude":37.841944444444444,"longitude":-4.8488888888888884,"countryCode":0,"raw_metar":"LEBA 260800Z 10001KT CAVOK 22/11 Q1017 19-05-26","datetime":"2019-05-26T08:00:00+00:00"},{"airport":"LEBB","visibility":0,"wind":0,"precipitation":0.0,"freezing":0,"dangerous":0.0,"VMC_IMC":0,"date":0,"airport_name":"BILBAO","latitude":43.301111111111105,"longitude":-2.9105555555555553,"countryCode":0,"raw_metar":"LEBB 260800Z 00000KT 9999 FEW005 SCT012 BKN030 14/13 Q1024 TEMPO 4000 BR BKN010 19-05-26","datetime":"2019-05-26T08:00:00+00:00"},{"airport":"LEBG","visibility":0,"wind":0,"precipitation":0.0,"freezing":0,"dangerous":0.0,"VMC_IMC":0,"date":0,"airport_name":"BURGOS","latitude":42.3575,"longitude":-3.6136111111111111,"countryCode":0,"raw_metar":"LEBG 260800Z 03006KT 350V060 9999 -DZ BKN012 09/08 Q1023 19-05-26","datetime":"2019-05-26T08:00:00+00:00"},{"airport":"LEBL","visibility":0,"wind":2,"precipitation":0.0,"freezing":0,"dangerous":0.0,"VMC_IMC":0,"date":0,"airport_name":"BARCELONA/EL PRAT","latitude":41.296944444444442,"longitude":2.0783333333333336,"countryCode":0,"raw_metar":"LEBL 260800Z 33014G28KT 290V350 9999 FEW030 19/10 Q1015 NOSIG 19-05-26","datetime":"2019-05-26T08:00:00+00:00"},{"airport":"LEBZ","visibility":0,"wind":0,"precipitation":0.0,"freezing":0,"dangerous":0.0,"VMC_IMC":0,"date":0,"airport_name":"BADAJOZ","latitude":38.891388888888891,"longitude":-6.8213888888888885,"countryCode":0,"raw_metar":"LEBZ 260800Z 02005KT 340V080 CAVOK 22/06 Q1019 19-05-26","datetime":"2019-05-26T08:00:00+00:00"},{"airport":"LECO","visibility":0,"wind":0,"precipitation":0.0,"freezing":0,"dangerous":0.0,"VMC_IMC":0,"date":0,"airport_name":"A CORUNA","latitude":43.301944444444445,"longitude":-8.3772222222222226,"countryCode":0,"raw_metar":"LECO 260800Z 08003KT 020V150 9999 SCT014 BKN020 14/12 Q1025 TEMPO BKN014 19-05-26","datetime":"2019-05-26T08:00:00+00:00"},{"airport":"LECV","visibility":0,"wind":0,"precipitation":0.0,"freezing":0,"dangerous":0.0,"VMC_IMC":0,"date":0,"airport_name":"MADRID-COLMENAR VIEJO (HEL MILITAR)","latitude":40.697222222222216,"longitude":-3.7633333333333332,"countryCode":0,"raw_metar":"LECV 260800Z VRB01KT CAVOK 13/05 Q1021 19-05-26","datetime":"2019-05-26T08:00:00+00:00"},{"airport":"LEGE","visibility":0,"wind":0,"precipitation":0.0,"freezing":0,"dangerous":0.0,"VMC_IMC":0,"date":0,"airport_name":"GIRONA","latitude":41.900833333333331,"longitude":2.7605555555555554,"countryCode":0,"raw_metar":"LEGE 260800Z 00000KT 9999 FEW030 SCT090 16/12 Q1015 19-05-26","datetime":"2019-05-26T08:00:00+00:00"},{"airport":"LEGR","visibility":0,"wind":0,"precipitation":0.0,"freezing":0,"dangerous":0.0,"VMC_IMC":0,"date":0,"airport_name":"GRANADA/FEDERICO GARCIA LORCA GRANADA-JAEN","latitude":37.188611111111108,"longitude":-3.777222222222222,"countryCode":0,"raw_metar":"LEGR 260800Z VRB01KT 9999 FEW070 18/09 Q1019 19-05-26","datetime":"2019-05-26T08:00:00+00:00"},{"airport":"LEGT","visibility":0,"wind":0,"precipitation":0.0,"freezing":0,"dangerous":0.0,"VMC_IMC":0,"date":0,"airport_name":"MADRID/GETAFE","latitude":40.294166666666662,"longitude":-3.7236111111111114,"countryCode":0,"raw_metar":"LEGT 260800Z 05007KT 020V090 CAVOK 15/05 Q1021 19-05-26","datetime":"2019-05-26T08:00:00+00:00"},{"airport":"LEHC","visibility":0,"wind":0,"precipitation":0.0,"freezing":0,"dangerous":0.0,"VMC_IMC":0,"date":0,"airport_name":"HUESCA/PIRINEOS","latitude":42.080833333333338,"longitude":-0.32333333333333331,"countryCode":0,"raw_metar":"LEHC 260800Z 22006KT 170V270 CAVOK 15/09 Q1018 19-05-26","datetime":"2019-05-26T08:00:00+00:00"},{"airport":"LEIB","visibility":0,"wind":0,"precipitation":0.0,"freezing":0,"dangerous":0.0,"VMC_IMC":0,"date":0,"airport_name":"IBIZA","latitude":38.872777777777777,"longitude":1.3730555555555557,"countryCode":0,"raw_metar":"LEIB 260800Z VRB03KT CAVOK 21/12 Q1016 NOSIG 19-05-26","datetime":"2019-05-26T08:00:00+00:00"},{"airport":"LEJR","visibility":0,"wind":0,"precipitation":0.0,"freezing":0,"dangerous":0.0,"VMC_IMC":0,"date":0,"airport_name":"JEREZ","latitude":36.744722222222222,"longitude":-6.06,"countryCode":0,"raw_metar":"LEJR 260800Z VRB02KT CAVOK 22/12 Q1017 19-05-26","datetime":"2019-05-26T08:00:00+00:00"},{"airport":"LEMO","visibility":0,"wind":0,"precipitation":0.0,"freezing":0,"dangerous":0.0,"VMC_IMC":0,"date":0,"airport_name":"SEVILLA/MORON (MILITAR)","latitude":37.175,"longitude":-5.6161111111111106,"countryCode":0,"raw_metar":"LEMO 260800Z VRB04KT CAVOK 22/12 Q1017 NOSIG 19-05-26","datetime":"2019-05-26T08:00:00+00:00"},{"airport":"LEMH","visibility":0,"wind":4,"precipitation":0.0,"freezing":0,"dangerous":0.0,"VMC_IMC":0,"date":0,"airport_name":"MENORCA","latitude":39.862500000000004,"longitude":4.2186111111111115,"countryCode":0,"raw_metar":"LEMH 260800Z 36020G31KT 9999 FEW025 18/12 Q1014 19-05-26","datetime":"2019-05-26T08:00:00+00:00"},{"airport":"LEMG","visibility":0,"wind":0,"precipitation":0.0,"freezing":0,"dangerous":0.0,"VMC_IMC":0,"date":0,"airport_name":"MALAGA/COSTA DEL SOL","latitude":36.675,"longitude":-4.4991666666666665,"countryCode":0,"raw_metar":"LEMG 260800Z 30004KT 260V350 CAVOK 21/13 Q1018 BECMG 13010KT 19-05-26","datetime":"2019-05-26T08:00:00+00:00"},{"airport":"LEMD","visibility":0,"wind":0,"precipitation":0.0,"freezing":0,"dangerous":0.0,"VMC_IMC":0,"date":0,"airport_name":"MADRID/ADOLFO SUAREZ MADRID-BARAJAS","latitude":40.472222222222221,"longitude":-3.5608333333333331,"countryCode":0,"raw_metar":"LEMD 260800Z 04004KT 340V150 CAVOK 15/04 Q1020 NOSIG 19-05-26","datetime":"2019-05-26T08:00:00+00:00"},{"airport":"LELO","visibility":0,"wind":0,"precipitation":0.0,"freezing":0,"dangerous":0.0,"VMC_IMC":0,"date":0,"airport_name":"LOGRONO/AGONCILLO (MILITAR)","latitude":42.454166666666673,"longitude":-2.3208333333333333,"countryCode":0,"raw_metar":"LELO 260800Z 27012KT 9999 FEW025 BKN040 13/09 Q1023 19-05-26","datetime":"2019-05-26T08:00:00+00:00"},{"airport":"LELN","visibility":0,"wind":0,"precipitation":0.0,"freezing":0,"dangerous":0.0,"VMC_IMC":0,"date":0,"airport_name":"LEON","latitude":42.588611111111113,"longitude":-5.6561111111111115,"countryCode":0,"raw_metar":"LELN 260800Z 23005KT 180V280 CAVOK 11/05 Q1023 19-05-26","datetime":"2019-05-26T08:00:00+00:00"},{"airport":"LELL","visibility":0,"wind":0,"precipitation":0.0,"freezing":0,"dangerous":0.0,"VMC_IMC":0,"date":0,"airport_name":"SABADELL","latitude":41.520833333333336,"longitude":2.105,"countryCode":0,"raw_metar":"LELL 260800Z 32004KT CAVOK 19/11 Q1016 19-05-26","datetime":"2019-05-26T08:00:00+00:00"},{"airport":"LELC","visibility":0,"wind":0,"precipitation":0.0,"freezing":0,"dangerous":0.0,"VMC_IMC":0,"date":0,"airport_name":"MURCIA/SAN JAVIER","latitude":37.775,"longitude":-0.8125,"countryCode":0,"raw_metar":"LELC 260800Z 24006KT 200V280 CAVOK 22/14 Q1017 NOSIG 19-05-26","datetime":"2019-05-26T08:00:00+00:00"},{"airport":"LEPA","visibility":0,"wind":0,"precipitation":0.0,"freezing":0,"dangerous":0.0,"VMC_IMC":0,"date":0,"airport_name":"PALMA DE MALLORCA","latitude":39.551666666666662,"longitude":2.7388888888888889,"countryCode":0,"raw_metar":"LEPA 260800Z 33013KT 300V010 9999 FEW018 19/14 Q1015 NOSIG 19-05-26","datetime":"2019-05-26T08:00:00+00:00"},{"airport":"LEPP","visibility":0,"wind":0,"precipitation":0.0,"freezing":0,"dangerous":0.0,"VMC_IMC":0,"date":0,"airport_name":"PAMPLONA","latitude":42.769999999999996,"longitude":-1.6463888888888889,"countryCode":0,"raw_metar":"LEPP 260800Z 30007KT 270V330 9999 FEW014 SCT025 BKN040 11/10 Q1022 19-05-26","datetime":"2019-05-26T08:00:00+00:00"},{"airport":"LETO","visibility":0,"wind":0,"precipitation":0.0,"freezing":0,"dangerous":0.0,"VMC_IMC":0,"date":0,"airport_name":"MADRID/TORREJON","latitude":40.49666666666667,"longitude":-3.4458333333333337,"countryCode":0,"raw_metar":"LETO 260800Z 05007KT 020V080 CAVOK 14/05 Q1020 NOSIG 19-05-26","datetime":"2019-05-26T08:00:00+00:00"},{"airport":"LETL","visibility":0,"wind":2,"precipitation":0.0,"freezing":0,"dangerous":0.0,"VMC_IMC":0,"date":0,"airport_name":"TERUEL","latitude":40.411944444444444,"longitude":-1.2175,"countryCode":0,"raw_metar":"LETL 260800Z AUTO 35016KT 9999 OVC020 09/04 Q1021 19-05-26","datetime":"2019-05-26T08:00:00+00:00"},{"airport":"LEST","visibility":0,"wind":0,"precipitation":0.0,"freezing":0,"dangerous":0.0,"VMC_IMC":0,"date":0,"airport_name":"SANTIAGO","latitude":42.896388888888886,"longitude":-8.4152777777777779,"countryCode":0,"raw_metar":"LEST 260800Z 04009KT 340V080 9999 BKN009 12/10 Q1024 TEMPO SCT009 19-05-26","datetime":"2019-05-26T08:00:00+00:00"},{"airport":"LESO","visibility":0,"wind":0,"precipitation":0.0,"freezing":0,"dangerous":0.0,"VMC_IMC":0,"date":0,"airport_name":"SAN SEBASTIAN","latitude":43.356388888888887,"longitude":-1.7905555555555555,"countryCode":0,"raw_metar":"LESO 260800Z 28006KT 200V330 9000 -DZ SCT006 BKN013 14/13 Q1023 19-05-26","datetime":"2019-05-26T08:00:00+00:00"},{"airport":"LESA","visibility":0,"wind":0,"precipitation":0.0,"freezing":0,"dangerous":0.0,"VMC_IMC":0,"date":0,"airport_name":"SALAMANCA","latitude":40.95194444444445,"longitude":-5.5019444444444447,"countryCode":0,"raw_metar":"LESA 260800Z 11007KT 070V140 CAVOK 13/06 Q1023 19-05-26","datetime":"2019-05-26T08:00:00+00:00"},{"airport":"LERT","visibility":0,"wind":0,"precipitation":0.0,"freezing":0,"dangerous":0.0,"VMC_IMC":0,"date":0,"airport_name":"CADIZ/ROTA (BASE AERO-NAVAL)","latitude":36.645277777777778,"longitude":-6.349444444444444,"countryCode":0,"raw_metar":"LERT 260800Z 10007KT 070V130 CAVOK 22/10 Q1017 NOSIG 19-05-26","datetime":"2019-05-26T08:00:00+00:00"},{"airport":"LERS","visibility":0,"wind":0,"precipitation":0.0,"freezing":0,"dangerous":0.0,"VMC_IMC":0,"date":0,"airport_name":"REUS","latitude":41.1475,"longitude":1.1672222222222224,"countryCode":0,"raw_metar":"LERS 260800Z 26008KT 230V300 9999 FEW040 19/10 Q1016 19-05-26","datetime":"2019-05-26T08:00:00+00:00"},{"airport":"LERI","visibility":0,"wind":0,"precipitation":0.0,"freezing":0,"dangerous":0.0,"VMC_IMC":0,"date":0,"airport_name":"MURCIA/ALCANTARILLA (MILITAR)","latitude":37.952222222222225,"longitude":-1.2308333333333335,"countryCode":0,"raw_metar":"LERI 260800Z 09001KT CAVOK 20/13 Q1017 NOSIG 19-05-26","datetime":"2019-05-26T08:00:00+00:00"},{"airport":"LEVC","visibility":0,"wind":0,"precipitation":0.0,"freezing":0,"dangerous":0.0,"VMC_IMC":0,"date":0,"airport_name":"VALENCIA","latitude":39.489444444444445,"longitude":-0.48166666666666669,"countryCode":0,"raw_metar":"LEVC 260800Z 31006KT 280V340 9999 FEW030 20/08 Q1017 NOSIG 19-05-26","datetime":"2019-05-26T08:00:00+00:00"},{"airport":"GCFV","visibility":0,"wind":0,"precipitation":0.0,"freezing":0,"dangerous":0.0,"VMC_IMC":0,"date":0,"airport_name":"FUERTEVENTURA","latitude":28.452777777777776,"longitude":-13.863888888888889,"countryCode":0,"raw_metar":"GCFV 260800Z 33011KT 9999 FEW020 21/15 Q1014 19-05-26","datetime":"2019-05-26T08:00:00+00:00"},{"airport":"LEZG","visibility":0,"wind":4,"precipitation":0.0,"freezing":0,"dangerous":0.0,"VMC_IMC":0,"date":0,"airport_name":"ZARAGOZA","latitude":41.666111111111107,"longitude":-1.0416666666666667,"countryCode":0,"raw_metar":"LEZG 260800Z 31020G30KT 280V340 9999 FEW030 16/08 Q1020 19-05-26","datetime":"2019-05-26T08:00:00+00:00"},{"airport":"LEXJ","visibility":0,"wind":0,"precipitation":0.0,"freezing":0,"dangerous":0.0,"VMC_IMC":0,"date":0,"airport_name":"SANTANDER/SEVE BALLESTEROS-SANTANDER","latitude":43.426944444444445,"longitude":-3.82,"countryCode":0,"raw_metar":"LEXJ 260800Z 28007KT 250V320 9999 FEW018 SCT026 BKN053 16/11 Q1024 19-05-26","datetime":"2019-05-26T08:00:00+00:00"},{"airport":"LEVX","visibility":0,"wind":0,"precipitation":0.0,"freezing":0,"dangerous":0.0,"VMC_IMC":0,"date":0,"airport_name":"VIGO","latitude":42.229166666666671,"longitude":-8.6275000000000013,"countryCode":0,"raw_metar":"LEVX 260800Z VRB02KT CAVOK 16/11 Q1022 NOSIG 19-05-26","datetime":"2019-05-26T08:00:00+00:00"},{"airport":"LEVT","visibility":0,"wind":0,"precipitation":0.0,"freezing":0,"dangerous":0.0,"VMC_IMC":0,"date":0,"airport_name":"VITORIA","latitude":42.882777777777775,"longitude":-2.7244444444444444,"countryCode":0,"raw_metar":"LEVT 260800Z VRB02KT 9999 BKN012 BKN024 12/10 Q1023 19-05-26","datetime":"2019-05-26T08:00:00+00:00"},{"airport":"LEVS","visibility":0,"wind":0,"precipitation":0.0,"freezing":0,"dangerous":0.0,"VMC_IMC":0,"date":0,"airport_name":"MADRID/CUATRO VIENTOS (MIL)","latitude":40.3705556,"longitude":-3.7852778,"countryCode":0,"raw_metar":"LEVS 260800Z VRB03KT CAVOK 16/05 Q1021 19-05-26","datetime":"2019-05-26T08:00:00+00:00"},{"airport":"LEVD","visibility":0,"wind":0,"precipitation":0.0,"freezing":0,"dangerous":0.0,"VMC_IMC":0,"date":0,"airport_name":"VALLADOLID","latitude":41.706111111111113,"longitude":-4.8519444444444444,"countryCode":0,"raw_metar":"LEVD 260800Z 07011KT 040V100 CAVOK 12/07 Q1023 19-05-26","datetime":"2019-05-26T08:00:00+00:00"},{"airport":"GCHI","visibility":0,"wind":2,"precipitation":0.0,"freezing":0,"dangerous":0.0,"VMC_IMC":0,"date":0,"airport_name":"HIERRO","latitude":27.814722222222223,"longitude":-17.886944444444445,"countryCode":0,"raw_metar":"GCHI 260800Z 35016KT 9999 FEW025 20/16 Q1017 19-05-26","datetime":"2019-05-26T08:00:00+00:00"},{"airport":"GCGM","visibility":0,"wind":0,"precipitation":0.0,"freezing":0,"dangerous":0.0,"VMC_IMC":0,"date":0,"airport_name":"LA GOMERA","latitude":28.029722222222222,"longitude":-17.214722222222221,"countryCode":0,"raw_metar":"GCGM 260800Z 24003KT 190V270 9999 FEW020 19/15 Q1016 RMK R09/VRB01KT ARP/VRB02KT 19-05-26","datetime":"2019-05-26T08:00:00+00:00"},{"airport":"LEZL","visibility":0,"wind":0,"precipitation":0.0,"freezing":0,"dangerous":0.0,"VMC_IMC":0,"date":0,"airport_name":"SEVILLA","latitude":37.418055555555554,"longitude":-5.8988888888888882,"countryCode":0,"raw_metar":"LEZL 260800Z 35002KT CAVOK 22/15 Q1017 NOSIG 19-05-26","datetime":"2019-05-26T08:00:00+00:00"},{"airport":"GCLA","visibility":0,"wind":0,"precipitation":0.0,"freezing":0,"dangerous":0.0,"VMC_IMC":0,"date":0,"airport_name":"LA PALMA","latitude":28.62638888888889,"longitude":-17.755555555555556,"countryCode":0,"raw_metar":"GCLA 260800Z 03012KT 9999 FEW035 20/16 Q1017 19-05-26","datetime":"2019-05-26T08:00:00+00:00"},{"airport":"GEML","visibility":0,"wind":0,"precipitation":0.0,"freezing":0,"dangerous":0.0,"VMC_IMC":0,"date":0,"airport_name":"MELILLA","latitude":35.279722222222219,"longitude":-2.9563888888888892,"countryCode":0,"raw_metar":"GEML 260800Z 13007KT 100V170 CAVOK 22/10 Q1018 19-05-26","datetime":"2019-05-26T08:00:00+00:00"},{"airport":"GCXO","visibility":0,"wind":0,"precipitation":0.0,"freezing":0,"dangerous":0.0,"VMC_IMC":0,"date":0,"airport_name":"TENERIFE NORTE","latitude":28.482777777777777,"longitude":-16.341666666666665,"countryCode":0,"raw_metar":"GCXO 260800Z 29015KT 8000 1500NW PRFG FEW000 SCT003 BKN012 16/14 Q1018 TEMPO BKN008 19-05-26","datetime":"2019-05-26T08:00:00+00:00"},{"airport":"GCTS","visibility":0,"wind":0,"precipitation":0.0,"freezing":0,"dangerous":0.0,"VMC_IMC":0,"date":0,"airport_name":"TENERIFE SUR/REINA SOFIA","latitude":28.044444444444448,"longitude":-16.572499999999998,"countryCode":0,"raw_metar":"GCTS 260800Z VRB01KT CAVOK 21/14 Q1016 NOSIG 19-05-26","datetime":"2019-05-26T08:00:00+00:00"},{"airport":"GCRR","visibility":0,"wind":0,"precipitation":0.0,"freezing":0,"dangerous":0.0,"VMC_IMC":0,"date":0,"airport_name":"LANZAROTE","latitude":28.945555555555554,"longitude":-13.605277777777777,"countryCode":0,"raw_metar":"GCRR 260800Z 35015KT 9999 FEW020 21/15 Q1014 19-05-26","datetime":"2019-05-26T08:00:00+00:00"},{"airport":"GCLP","visibility":0,"wind":4,"precipitation":0.0,"freezing":0,"dangerous":0.0,"VMC_IMC":0,"date":0,"airport_name":"GRAN CANARIA","latitude":27.931944444444447,"longitude":-15.386666666666667,"countryCode":0,"raw_metar":"GCLP 260800Z 01021KT 9999 FEW025 21/14 Q1015 NOSIG 19-05-26","datetime":"2019-05-26T08:00:00+00:00"}]